CAS-2T & KS-1Q          
1 41847U 16066G   23087.19803735  .00002442  00000+0  36906-3 0  9997
2 41847  98.5110 156.1230 0361795  80.4361 283.7508 14.39441724335150
NAYIF-1 (EO-88)         
1 42017U 17008BX  23087.18130163  .00098155  00000+0  13776-2 0  9996
2 42017  97.2229 156.3442 0002492 269.2445  90.8525 15.56395033340782
ZHUHAI-1 02 (CAS-4B)    
1 42759U 17034B   23087.19844550  .00016051  00000+0  83403-3 0  9991
2 42759  43.0171 205.3989 0011941 298.5098 131.3852 15.15804304319342
ZHUHAI-1 01 (CAS-4A)    
1 42761U 17034D   23087.21741088  .00015422  00000+0  79997-3 0  9993
2 42761  43.0163 203.8519 0012465 299.7928 134.6864 15.15884042319352
MAX VALIER SAT          
1 42778U 17036P   23086.84973402  .00024482  00000+0  72241-3 0  9999
2 42778  97.1688 123.7802 0009610  48.4045 311.8021 15.34932868320238
RADFXSAT (FOX-1B)       
1 43017U 17073E   23086.68330161  .00011475  00000+0  81692-3 0  9996
2 43017  97.6414 334.2548 0236884 338.5676  20.5745 14.84852715289081
FOX-1D (AO-92)          
1 43137U 18004AC  23086.75901039  .00036774  00000+0  91502-3 0  9990
2 43137  97.3338 165.3972 0006633  82.4555 277.7444 15.40162916289754
DIWATA-2B               
1 43678U 18084H   23087.24325464  .00003521  00000+0  34334-3 0  9999
2 43678  98.0071 229.6608 0010779  71.0616 289.1691 14.93092205240189
ES'HAIL 2               
1 43700U 18090A   23086.85792712  .00000136  00000+0  00000+0 0  9990
2 43700   0.0177 177.0716 0001111 179.7040 162.8728  1.00271176 15872
FOX-1CLIFF (AO-95)      
1 43770U 18099N   23086.74234630  .00006079  00000+0  50676-3 0  9994
2 43770  97.5827 150.4911 0014712  48.5510 311.6974 14.98880751235406
ITASAT 1                
1 43786U 18099AE  23086.73023218  .00006499  00000+0  54399-3 0  9990
2 43786  97.5850 151.5100 0015368  44.5453 315.7002 14.98689386235443
JY1SAT (JO-97)          
1 43803U 18099AX  23086.68294995  .00006390  00000+0  52041-3 0  9998
2 43803  97.5813 151.3859 0014696  35.1603 325.0587 14.99765872235478
UWE-4                   
1 43880U 18111E   23086.73116713  .00008432  00000+0  66183-3 0  9996
2 43880  97.6450 353.2051 0018183  88.5661 271.7645 15.01043190232148
NEXUS (FO-99)           
1 43937U 19003F   23086.81484137  .00047087  00000+0  10187-2 0  9998
2 43937  97.0992 115.4766 0014915 204.2296 155.8254 15.44215094233451
JAISAT-1                
1 44419U 19038F   23086.90853050  .00028715  00000+0  11116-2 0  9996
2 44419  97.6705  66.1966 0013805 218.5829 141.4423 15.26058267206126
DUCHIFAT-3              
1 44854U 19089C   23086.78933333  .00014382  00000+0  10034-2 0  9997
2 44854  36.9642 217.2447 0008780  12.6211 111.9003 15.04751886180560
CAS-6 (TIANQIN 1)       
1 44881U 19093C   23087.23194060  .00002089  00000+0  26744-3 0  9996
2 44881  97.8646 167.0608 0014491 347.5126  12.5732 14.82314950176801
RS-44 & BREEZE-KM R/B   
1 44909U 19096E   23086.91376242  .00000047  00000+0  14300-3 0  9995
2 44909  82.5234  41.9403 0217946  17.2936 343.5439 12.79719529151763
HUSKYSAT-1 (HO-107)     
1 45119U 19071J   23086.97787474  .00561310  13646-3  15791-2 0  9994
2 45119  51.6238  81.6432 0008966  88.6012 271.6021 15.92880940177511
BY70-2                  
1 45857U 20042B   23087.15985356  .00030380  00000+0  33813-2 0  9992
2 45857  97.9290 166.9762 0008594 259.5278 100.5072 14.87020410147484
SALSAT                  
1 46495U 20068K   23086.80066589  .00008086  00000+0  54509-3 0  9992
2 46495  97.7620  34.0345 0017052  41.3648 318.8867 15.06811489136814
BY70-3                  
1 46839U 20079N   23087.26410530  .00690182  20127-3  18573-2 0  9996
2 46839  97.1468 164.7815 0005969 259.7008 181.9651 15.94362142134308
RADFXSAT-2 (AO-109)     
1 47311U 21002C   23086.92095859  .00030113  00000+0  88932-3 0  9997
2 47311  60.6840   9.9513 0030212 131.3871 228.9827 15.34385785121798
UVSQ-SAT                
1 47438U 21006AB  23087.15890926  .00018604  00000+0  82310-3 0  9990
2 47438  97.3949 145.5430 0010033  15.7707 344.3839 15.21678899120312
DIY-1 (ARDUIQUBE)       
1 47963U 21022AH  23087.20261596  .00110899  00000+0  30551-2 0  9990
2 47963  97.5061 352.8024 0007916 198.9740 161.1210 15.36672922110067
XW-3 (CAS-9)            
1 50466U 21131B   23087.29542868  .00001313  00000+0  44170-3 0  9999
2 50466  98.5539 169.0950 0004730  38.6048 321.5477 14.38783065 65729
TEVEL-3                 
1 50988U 22002E   23087.20755227  .00030707  00000+0  13554-2 0  9992
2 50988  97.4422 154.8889 0008709 155.4823 270.3449 15.21665182 66430
TEVEL-8                 
1 50989U 22002F   23087.15475103  .00030787  00000+0  13613-2 0  9993
2 50989  97.4427 154.8862 0009017 153.0508 259.3075 15.21602064 66425
TEVEL-5                 
1 50998U 22002Q   23087.19172992  .00031956  00000+0  13811-2 0  9996
2 50998  97.4412 155.1694 0010799 150.4207 270.7854 15.22356657 66452
TEVEL-6                 
1 50999U 22002R   23087.19002601  .00032051  00000+0  13849-2 0  9994
2 50999  97.4406 155.1660 0010986 150.0477 269.4057 15.22362411 66457
TEVEL-1                 
1 51013U 22002AF  23087.14815319  .00030664  00000+0  13548-2 0  9999
2 51013  97.4410 154.7844 0009649 155.4753 263.7291 15.21624980 66424
TEVEL-7                 
1 51062U 22002CG  23087.15647039  .00030741  00000+0  13587-2 0  9995
2 51062  97.4440 154.8660 0009783 153.2704 259.0141 15.21611311 66425
TEVEL-4                 
1 51063U 22002CH  23087.16133007  .00030696  00000+0  13583-2 0  9997
2 51063  97.4439 154.8590 0009437 152.6665 266.0353 15.21574261 66426
TEVEL-2                 
1 51069U 22002CP  23087.14168183  .00030495  00000+0  13461-2 0  9996
2 51069  97.4406 154.7980 0009412 154.9872 259.9734 15.21660204 66423
GREENCUBE               
1 53106U 22080B   23080.11397462 -.00000003  00000+0  00000+0 0  9995
2 53106  70.1803 350.3243 0008309 206.6105 153.4129  6.42557126 16095
RS29S (SXC3-2110 CYCLO*)
1 53373U 22096D   23087.21314640  .00044287  00000+0  13575-2 0  9998
2 53373  97.4199 352.8589 0003308  71.3047  81.1521 15.33643909 35254
RS32S (SXC3-212 MONITO*)
1 53374U 22096E   23087.21388900  .00040891  00000+0  12664-2 0  9994
2 53374  97.4188 352.8378 0003774  75.8520  75.3764 15.33332511 35259
RS34S (SXC3-218 KUZBAS*)
1 53375U 22096F   23087.27132780  .00034712  00000+0  11202-2 0  9996
2 53375  97.4202 352.7596 0003645  76.2831  23.1984 15.32052494 35258
RS23S (SXC3-21 UTMN)    
1 53376U 22096G   23087.19813478  .00037107  00000+0  11822-2 0  9997
2 53376  97.4201 352.7251 0003985  71.1727  82.3682 15.32448009 35243
RS28S (SXC3-214 MIET-A*)
1 53377U 22096H   23087.21368056  .00032449  00000+0  10508-2 0  9992
2 53377  97.4206 352.7122 0003163  75.9184  82.3810 15.31956413 35248
RS26S (KAI-1)           
1 53378U 22096J   23087.24717282  .00028339  00000+0  94395-3 0  9995
2 53378  97.4223 352.6534 0003507  68.7442  49.5843 15.31075608 35242
RS19S (SXC3-219 ISOI)   
1 53381U 22096M   23087.06282957  .00035743  00000+0  11308-2 0  9994
2 53381  97.4211 352.7337 0005406  26.0994  87.7964 15.32673966 35233
RS21S (CUBESX-HSE-2)    
1 53383U 22096P   23087.24856322  .00036459  00000+0  11468-2 0  9991
2 53383  97.4212 352.9531 0004906  22.2880  96.2708 15.32857845 35264
RS30S (SXC3-217 SIREN)  
1 53384U 22096Q   23087.22333337  .00030236  00000+0  97721-3 0  9990
2 53384  97.4213 352.8488 0004914  14.0990 136.9189 15.32028908 35250
RS20S (GEOSCAN-EDELVEIS)
1 53385U 22096R   23087.19167152  .00046903  00000+0  13760-2 0  9995
2 53385  97.4192 353.1809 0005243  19.5854 136.0851 15.35010184 35306
RS33S (SXC3-215 VIZARD) 
1 53386U 22096S   23087.25192456  .00058331  00000+0  15983-2 0  9995
2 53386  97.4188 353.5391 0005707  23.9344  94.0791 15.37088388 35321
CAS-5A (FO-118)         
1 54684U 22167C   23087.27232840  .00020375  00000+0  11921-2 0  9995
2 54684  97.5479 225.5889 0013687 251.2234 173.7339 15.11798530 16441
